C/2019 U5 (PANSTARRS),h,03/29.8994/2023,113.5212,2.6371,181.5076,1.001466,3.624074,2000,4.5,4.0
# From MPEC 2022-H04
C/2019 U6 (Lemmon),e,60.9878,235.7362,329.6111,355.6455,0.0001470,0.99742984,0.0000,06/18.5500/2020,2000,g 10.0,4.0
# From MPEC 2022-N37
C/2019 V1 (Borisov),e,61.8889,83.1765,51.1679,1498,0.0000170,0.99793344,0.0000,07/16.3735/2020,2000,g 11.0,4.0
# From MPEC 2022-L66
P/2019 V2 (Groeller),e,11.8082,189.1848,335.8329,7.502790,0.0479590,0.33115156,34.5743,10/09.0/2022,2000,g 10.0,4.0
# From MPC119998
P/2019 W1 (PANSTARRS),e,23.4727,35.3777,18.6979,4.549372,0.1015727,0.26691072,126.9193,10/09.0/2022,2000,g 12.9,4.0
# From MPEC 2021-P47
P/2019 X1 (Pruyne),e,10.2490,43.6682,36.7864,6.173398,0.0642566,0.30340304,75.5297,10/09.0/2022,2000,g 10.4,4.0
# From MPC119999
C/2019 Y1 (ATLAS),e,73.3405,31.5479,57.9298,86.05678,0.0012346,0.99035519,0.0000,03/15.7920/2020,2000,g 13.7,4.0
# From MPEC 2022-O08
C/2019 Y4 (ATLAS),e,45.2943,120.6187,177.4531,351.0098,0.0001499,0.99927537,0.0000,05/30.9851/2020,2000,g 11.8,6.0
# From MPEC 2020-L06
C/2019 Y4-A (ATLAS),h,05/31.0099/2020,45.7395,120.9799,177.2862,1.001416,0.252499,2000,11.6,6.0
# From MPEC 2020-L06
C/2019 Y4-B (ATLAS),e,45.3747,120.6751,177.4190,1504,0.0000169,0.99983110,0.0000,05/30.9872/2020,2000,g 12.8,6.0
# From MPEC 2020-L06
C/2019 Y4-C (ATLAS),h,05/30.9658/2020,45.5217,120.7061,177.3196,1.002137,0.253561,2000,12.7,6.0
# From MPEC 2020-L06
C/2019 Y4-D (ATLAS),e,45.5648,121.0835,177.4573,68.43763,0.0017409,0.99630444,0.0000,05/31.0883/2020,2000,g 12.5,6.0
# From MPEC 2021-P47
C/2019 Y5 (PANSTARRS),e,82.7797,51.7646,303.5382,783.7603,0.0000449,0.99372593,0.0000,08/18.1392/2019,2000,g 11.0,4.0
# From MPEC 2022-O08
A/2020 A1,e,149.0402,119.2356,302.5619,25.72642,0.0075533,0.93519662,7.8659,10/09.0/2022,2000,g 18.0,2.0
# From MPEC 2020-L06
C/2020 A2 (Iwamoto),e,120.6766,286.3357,68.1301,1284,0.0000214,0.99924068,0.0000,01/08.5567/2020,2000,g 13.5,4.0
# From MPEC 2022-N37
C/2020 A3 (ATLAS),h,06/29.3937/2019,146.6831,120.8009,268.4104,1.001148,5.763441,2000,8.0,4.0
# From MPEC 2022-P91
P/2020 A4 (PANSTARRS-Lemmon),e,24.9902,312.4041,144.7642,8.193898,0.0420212,0.65375815,44.1784,10/09.0/2022,2000,g 15.0,4.0
# From MPEC 2020-N08
A/2020 B1,e,18.5152,309.9925,154.7120,51.34988,0.0026785,0.96605937,2.7265,10/09.0/2022,2000,g 21.0,2.0
# From MPEC 2022-N37
C/2020 B3 (Rankin),e,20.7099,185.8500,324.9524,986.0820,0.0000318,0.99661324,0.0000,10/19.3953/2019,2000,g 13.0,4.0
# From MPEC 2022-H04
P/2020 B4 (Sheppard),e,11.6093,185.9793,342.1683,7.966661,0.0438318,0.19169827,14.1268,10/09.0/2022,2000,g 10.5,4.0
# From MPEC 2022-R68
C/2020 F2 (ATLAS),h,07/15.4726/2022,163.5863,250.2782,48.3484,1.005336,8.817054,2000,4.5,4.0
# From MPEC 2021-O56
C/2020 F3 (NEOWISE),e,129.0537,61.0512,37.3353,347.6731,0.0001520,0.99915009,0.0000,07/03.6279/2020,2000,g  7.5,5.2
# From MPEC 2022-TA0
C/2020 F5 (MASTER),e,52.2308,350.5142,310.6918,193.0539,0.0003674,0.97760654,0.0000,03/18.2387/2021,2000,g  6.5,3.2
# From MPEC 2020-L06
C/2020 F6 (PANSTARRS),e,174.5830,207.9078,344.5947,411.6980,0.0001180,0.99147858,0.0000,04/11.7688/2020,2000,g 14.5,2.8
# From MPEC 2022-L66
C/2020 F7 (Lemmon),e,93.9505,321.8794,227.9549,617.1721,0.0000643,0.99136057,0.0000,11/13.8414/2021,2000,g  7.0,4.0
# From MPEC 2020-KB7
C/2020 F8 (SWAN),e,110.6916,259.9178,68.1497,261.0385,0.0002337,0.99835459,0.0000,05/27.5062/2020,2000,g 10.0,4.0
# From MPEC 2020-L06
P/2020 G1 (Pimentel),e,18.4999,240.1127,207.6105,3.608726,0.1437716,0.86017777,134.5089,10/09.0/2022,2000,g 17.0,4.0
# From MPEC 2020-L06
C/2020 H2 (Pruyne),e,124.9629,277.6591,26.6904,192.4435,0.0003692,0.99567460,0.0000,04/27.7866/2020,2000,g 18.0,4.0
# From MPEC 2020-HM1
C/2020 H3 (Wierzchos),p,06/05.7162/2020,62.5292,30.4456,2.300288,270.6227,2000,13.5,4.0
# From MPEC 2020-L06
C/2020 H4 (Leonard),e,84.5037,307.6943,117.5541,47.91675,0.0029715,0.98069139,0.0000,08/29.6102/2020,2000,g 15.0,3.2
# From MPEC 2022-N37
C/2020 H5 (Robinson),e,70.2495,210.6274,326.3686,3605,0.0000046,0.99740834,0.0000,12/11.2886/2020,2000,g  5.0,4.0
# From MPEC 2022-TA0
C/2020 H6 (ATLAS),h,09/30.9215/2021,79.9766,213.7155,20.3291,1.000076,4.702612,2000,8.0,3.2
# From MPEC 2020-KB7
C/2020 H7 (Lemmon),e,135.9235,323.5194,82.6780,1405,0.0000187,0.99685380,0.0000,06/02.9510/2020,2000,g 11.0,4.0
# From MPEC 2021-N06
C/2020 H8 (PANSTARRS),e,99.6740,68.4170,128.9476,593.5413,0.0000682,0.99212220,0.0000,06/04.4950/2020,2000,g 10.5,4.0
# From MPEC 2022-ED3
A/2020 H9,e,137.8766,213.1708,312.8603,371.9562,0.0001374,0.99307326,0.0000,12/21.4658/2019,2000,g 18.0,2.0
# From MPEC 2022-S20
C/2020 J1 (SONEAR),h,04/18.6538/2021,142.3030,226.5953,341.7607,1.000782,3.354676,2000,8.5,3.2
# From MPEC 2022-TA0
C/2020 K1 (PANSTARRS),e,89.6659,94.3549,213.9810,162791,0.0000000,0.99998112,0.0000,05/09.0683/2023,2000,g  5.5,4.0
# From MPEC 2021-N06
C/2020 K2 (PANSTARRS),h,08/06.2743/2020,91.0342,288.3764,67.3456,1.003866,8.879614,2000,10.8,4.0
# From MPEC 2020-KF9
C/2020 K3 (Leonard),p,06/01.0032/2020,129.0152,64.4924,1.583069,28.3546,2000,14.5,4.0
# From MPEC 2020-L06
C/2020 K4 (PANSTARRS),e,125.5789,264.1580,308.8462,23.94319,0.0084126,0.92672639,7.9853,10/09.0/2022,2000,g 16.5,4.0
# From MPEC 2021-R75
C/2020 K5 (PANSTARRS),h,06/05.5483/2021,67.1338,86.1661,249.6026,1.001459,1.536175,2000,11.0,4.0
# From MPEC 2022-PB4
C/2020 K6 (Rankin),h,09/15.7893/2021,103.6491,291.5397,44.3298,1.003574,5.868763,2000,8.0,4.0
# From MPEC 2022-L66
C/2020 K7 (PANSTARRS),e,32.0401,286.0701,358.2634,99.88006,0.0009874,0.93600149,1.0628,10/09.0/2022,2000,g  8.0,4.0
# From MPEC 2021-P47
C/2020 K8 (Catalina-ATLAS),h,09/14.6729/2020,31.4300,181.5470,259.9705,1.000158,0.472835,2000,15.0,3.2
# From MPEC 2021-BE3
P/2020 K9 (Lemmon-PANSTARRS),e,23.2097,166.2401,196.9995,4.201367,0.1144506,0.32139669,69.0984,10/09.0/2022,2000,g 12.5,4.0
# From MPEC 2021-U31
P/2020 M1 (PANSTARRS),e,8.5525,142.6826,72.5620,5.316119,0.0804104,0.47515356,81.7012,10/09.0/2022,2000,g 14.5,4.0
# From MPEC 2022-H30
C/2020 M3 (ATLAS),e,23.4737,71.1907,328.5125,27.02249,0.0070164,0.95307597,5.0042,10/09.0/2022,2000,g 14.5,4.0
# From MPEC 2022-OB6
A/2020 M4,h,11/24.2285/2020,160.1275,348.6214,104.6524,1.000799,5.952192,2000,14.5,2.0
# From MPEC 2022-S20
C/2020 M5 (ATLAS),h,08/19.8662/2021,93.2244,352.0934,126.3237,1.000396,3.003774,2000,9.0,4.0
# From MPEC 2022-GA9
C/2020 N1 (PANSTARRS),h,03/12.2535/2021,29.7129,279.9510,186.7556,1.000436,1.319452,2000,12.5,4.0
# From MPEC 2021-P47
C/2020 N2 (ATLAS),e,161.0350,257.1301,331.3035,104.0566,0.0009285,0.98275930,0.0000,08/23.9117/2020,2000,g 16.0,3.2
# From MPEC 2022-PB4
P/2020 O1 (Lemmon-PANSTARRS),e,5.2256,175.9750,104.5461,2.645209,0.2290941,0.11904840,203.8272,10/09.0/2022,2000,g 15.5,4.0
# From MPEC 2022-TA0
C/2020 O2 (Amaral),h,08/28.6439/2021,71.7564,256.7636,10.3154,1.002027,4.862514,2000,8.0,3.2
# From MPEC 2020-SI8
P/2020 O3 (PANSTARRS),e,8.4434,266.8199,81.5686,4.648763,0.0983327,0.10345856,60.6847,10/09.0/2022,2000,g 12.0,4.0
# From MPEC 2021-BE3
C/2020 P1 (NEOWISE),h,10/20.2965/2020,45.1368,53.4983,8.8871,1.000288,0.341293,2000,14.0,3.2
# From MPEC 2022-O01
C/2020 P3 (ATLAS),h,04/21.0433/2021,61.8886,19.4669,82.2605,1.000652,6.812366,2000,6.0,4.0
# From MPEC 2022-PB4
C/2020 PV6 (PANSTARRS),e,128.2360,329.1470,71.3931,42.00830,0.0036199,0.94535353,1.3681,10/09.0/2022,2000,g 10.0,4.0
# From MPEC 2022-L66
C/2020 Q1 (Borisov),e,142.9299,52.4030,9.9360,60.69646,0.0020843,0.97831138,0.0000,08/14.4808/2020,2000,g 14.0,4.0
# From MPEC 2022-C56
C/2020 R2 (PANSTARRS),e,53.2282,195.0932,211.7661,404.9123,0.0001210,0.98841191,0.0000,02/24.7160/2022,2000,g  9.0,4.0
# From MPEC 2022-K19
C/2020 R4 (ATLAS),e,164.4589,323.2744,46.7130,99.67232,0.0009905,0.98968538,0.0000,03/02.0519/2021,2000,g 13.5,4.0
# From MPEC 2020-W26
P/2020 R5 (PANSTARRS),e,11.4482,272.9755,82.5416,4.985525,0.0885396,0.31467592,76.3824,10/09.0/2022,2000,g  9.5,6.0
# From MPEC 2021-Y10
C/2020 R6 (Rankin),e,82.8106,12.1774,271.9941,330.2405,0.0001642,0.99051430,0.0000,09/09.0397/2019,2000,g 11.0,4.0
# From MPEC 2022-TA0
C/2020 R7 (ATLAS),h,09/16.2395/2022,114.8914,268.2818,347.8381,1.000172,2.955982,2000,7.0,3.2
# From MPEC 2021-BE3
P/2020 S1 (PANSTARRS),e,13.7313,129.4632,254.9763,5.989741,0.0672345,0.50769597,42.3320,10/09.0/2022,2000,g 14.0,4.0
# From MPEC 2022-ST7
C/2020 S2 (PANSTARRS),e,22.4032,197.6643,202.3192,10.21219,0.0302013,0.82801433,19.8090,10/09.0/2022,2000,g 17.0,4.0
# From MPEC 2022-C56
C/2020 S3 (Erasmus),e,20.0034,222.6261,350.0853,160.1067,0.0004865,0.99752571,0.0000,12/12.3783/2020,2000,g 13.5,3.2
# From MPEC 2022-TA0
C/2020 S4 (PANSTARRS),h,02/09.2520/2023,20.5711,117.7231,20.9930,1.000949,3.369696,2000,8.5,3.2
# From MPEC 2021-BE3
P/2020 S5 (PANSTARRS),e,12.3507,316.0027,53.1674,4.053086,0.1207884,0.33859909,95.5464,10/09.0/2022,2000,g 14.5,4.0
# From MPEC 2022-T74
P/2020 S6 (Leonard),e,15.4621,242.5382,176.6793,3.599779,0.1443080,0.47947816,98.7353,10/09.0/2022,2000,g 16.0,4.0
# From MPEC 2021-BE3
P/2020 S7 (PANSTARRS),e,16.0903,328.0242,40.5344,5.028611,0.0874041,0.41074932,60.2553,10/09.0/2022,2000,g 14.5,4.0
# From MPEC 2021-P47
C/2020 S8 (Lemmon),e,108.5272,24.0647,160.3073,270.0963,0.0002220,0.99125200,0.0000,04/10.8790/2021,2000,g 12.5,4.0
# From MPEC 2022-ST7
C/2020 T2 (Palomar),e,27.8578,82.9967,150.4897,322.3026,0.0001703,0.99361940,0.0000,07/11.1829/2021,2000,g 11.0,3.2
# From MPEC 2021-N06
P/2020 T3 (PANSTARRS),e,7.2973,73.9957,357.0350,3.517134,0.1494241,0.59190535,93.5987,10/09.0/2022,2000,g 18.0,3.2
# From MPEC 2021-N06
C/2020 T4 (PANSTARRS),h,07/05.2759/2021,83.8285,50.6140,79.6100,1.000134,2.191798,2000,13.0,3.2
# From MPEC 2021-BE3
C/2020 T5 (Lemmon),e,66.5724,237.8507,90.3216,790.1368,0.0000444,0.99760763,0.0000,10/09.5073/2020,2000,g 16.0,4.0
# From MPEC 2021-N06
P/2020 U2 (PANSTARRS),e,6.4205,342.8953,84.6340,3.778028,0.1342166,0.51094637,87.5286,10/09.0/2022,2000,g 18.0,4.0
# From MPEC 2021-W31
